[{"OBJECT_NAME":"STARLINK-3856","OBJECT_ID":"2022-049J","EPOCH":"2026-03-09T06:41:11.745024","MEAN_MOTION":15.08850733,"ECCENTRICITY":0.00015241,"INCLINATION":53.2179,"RA_OF_ASC_NODE":60.9676,"ARG_OF_PERICENTER":87.1423,"MEAN_ANOMALY":272.9744,"EPHEMERIS_TYPE":0,"CLASSIFICATION_TYPE":"U","NORAD_CAT_ID":52459,"ELEMENT_SET_NO":999,"REV_AT_EPOCH":21218,"BSTAR":0.00021236285,"MEAN_MOTION_DOT":3.094e-5,"MEAN_MOTION_DDOT":0},{"OBJECT_NAME":"CZ-2D DEB","OBJECT_ID":"2017-060C","EPOCH":"2026-03-09T12:36:22.356864","MEAN_MOTION":15.07716497,"ECCENTRICITY":0.0018685,"INCLINATION":98.2453,"RA_OF_ASC_NODE":267.9231,"ARG_OF_PERICENTER":71.2095,"MEAN_ANOMALY":289.1156,"EPHEMERIS_TYPE":0,"CLASSIFICATION_TYPE":"U","NORAD_CAT_ID":44610,"ELEMENT_SET_NO":999,"REV_AT_EPOCH":45422,"BSTAR":0.00057216024,"MEAN_MOTION_DOT":8.702e-5,"MEAN_MOTION_DDOT":0}]
